{
    "links": {
        "self": "http://www.neowsapp.com/rest/v1/neo/54017053?api_key=iIulBulltgU6a56xZRHN4H3l9WmuAYTsLGpBGhQ2"
    },
    "id": "54017053",
    "neo_reference_id": "54017053",
    "name": "(2020 JP2)",
    "designation": "2020 JP2",
    "nasa_jpl_url": "http://ssd.jpl.nasa.gov/sbdb.cgi?sstr=54017053",
    "absolute_magnitude_h": 26.435,
    "estimated_diameter": {
        "kilometers": {
            "estimated_diameter_min": 0.0137263471,
            "estimated_diameter_max": 0.0306930452
        },
        "meters": {
            "estimated_diameter_min": 13.7263470953,
            "estimated_diameter_max": 30.6930451877
        },
        "miles": {
            "estimated_diameter_min": 0.008529154,
            "estimated_diameter_max": 0.0190717682
        },
        "feet": {
            "estimated_diameter_min": 45.033948604,
            "estimated_diameter_max": 100.6989703737
        }
    },
    "is_potentially_hazardous_asteroid": false,
    "close_approach_data": [
        {
            "close_approach_date": "2020-05-27",
            "close_approach_date_full": "2020-May-27 00:13",
            "epoch_date_close_approach": 1590538380000,
            "relative_velocity": {
                "kilometers_per_second": "8.5827547065",
                "kilometers_per_hour": "30897.9169434192",
                "miles_per_hour": "19198.7640029818"
            },
            "miss_distance": {
                "astronomical": "0.0296899236",
                "lunar": "11.5493802804",
                "kilometers": "4441549.331022732",
                "miles": "2759850.7783164216"
            },
            "orbiting_body": "Earth"
        },
        {
            "close_approach_date": "2196-04-21",
            "close_approach_date_full": "2196-Apr-21 05:45",
            "epoch_date_close_approach": 7141499100000,
            "relative_velocity": {
                "kilometers_per_second": "22.2777381448",
                "kilometers_per_hour": "80199.8573213844",
                "miles_per_hour": "49833.072456168"
            },
            "miss_distance": {
                "astronomical": "0.4821099709",
                "lunar": "187.5407786801",
                "kilometers": "72122624.752401983",
                "miles": "44814920.9256460454"
            },
            "orbiting_body": "Earth"
        }
    ],
    "orbital_data": {
        "orbit_id": "4",
        "orbit_determination_date": "2020-05-22 07:41:22",
        "first_observation_date": "2020-05-13",
        "last_observation_date": "2020-05-21",
        "data_arc_in_days": 8,
        "observations_used": 21,
        "orbit_uncertainty": "8",
        "minimum_orbit_intersection": ".0228938",
        "jupiter_tisserand_invariant": "3.635",
        "epoch_osculation": "2458986.5",
        "eccentricity": ".5032672972274481",
        "semi_major_axis": "2.033212030935393",
        "inclination": "5.261034118540432",
        "ascending_node_longitude": "59.33259947618107",
        "orbital_period": "1058.942632517506",
        "perihelion_distance": "1.009962907436207",
        "perihelion_argument": "209.8243241118638",
        "aphelion_distance": "3.056461154434579",
        "perihelion_time": "2459015.653053467407",
        "mean_anomaly": "350.0890766638456",
        "mean_motion": ".3399617589709691",
        "equinox": "J2000",
        "orbit_class": {
            "orbit_class_type": "APO",
            "orbit_class_description": "Near-Earth asteroid orbits which cross the Earth’s orbit similar to that of 1862 Apollo",
            "orbit_class_range": "a (semi-major axis) > 1.0 AU; q (perihelion) < 1.017 AU"
        }
    },
    "is_sentry_object": false
}